NORAD_CAT_ID,OBJECT_NAME,OBJECT_TYPE,EPOCH,MEAN_MOTION,ECCENTRICITY,INCLINATION,RA_OF_ASC_NODE,ARG_OF_PERICENTER,MEAN_ANOMALY,BSTAR,MEAN_MOTION_DOT,MEAN_MOTION_DDOT,TLE_LINE0,TLE_LINE1,TLE_LINE2,SEMIMAJOR_AXIS,PERIOD,APOGEE,PERIGEE,DECAYED
53556.0,STARLINK-4505,PAYLOAD,2022-09-21 14:00:01,15.73169965,0.0003519,53.2171,352.4376,8.5394,199.1031,0.00014841,0.00020235,0.0,0 STARLINK-4505,1 53556U 22101AF  22264.58334491  .00020235  00000-0  14841-3 0  9996,2 53556  53.2171 352.4376 0003519   8.5394 199.1031 15.73169965  5182,6727.981,91.535,352.213,347.478,0.0
53556.0,STARLINK-4505,PAYLOAD,2022-09-21 22:00:00,15.73210049,0.0003467999999999,53.2173,350.7859,8.2099,288.348,0.00010062,0.00013531,0.0,0 STARLINK-4505,1 53556U 22101AF  22264.91667824  .00013531  00000-0  10062-3 0  9994,2 53556  53.2173 350.7859 0003468   8.2099 288.3480 15.73210049  1302,6727.8669999999975,91.533,352.065,347.398,0.0
53556.0,STARLINK-4505,PAYLOAD,2022-09-22 06:00:00,15.73238725,0.0003413999999999,53.2176,349.1366,12.6208,12.8753,-0.00030893,-0.00043841,0.0,0 STARLINK-4505,1 53556U 22101AF  22265.25001157 -.00043841  00000-0 -30893-3 0  9996,2 53556  53.2176 349.1366 0003414  12.6208  12.8753 15.73238725  5287,6727.785,91.531,351.94699999999995,347.353,0.0
53556.0,STARLINK-4505,PAYLOAD,2022-09-22 14:00:01,15.73212549,0.0003766,53.2175,347.4892,13.5587,100.8905,-0.00013442,-0.00019463,0.0,0 STARLINK-4505,1 53556U 22101AF  22265.58334491 -.00019463  00000-0 -13442-3 0  9996,2 53556  53.2175 347.4892 0003766  13.5587 100.8905 15.73212549  1303,6727.859,91.532,352.2580000000001,347.191,0.0
53556.0,STARLINK-4505,PAYLOAD,2022-09-22 22:00:00,15.73187102,0.0003668,53.2173,345.8386,11.2748,192.1151,3.4727e-05,4.251e-05,0.0,0 STARLINK-4505,1 53556U 22101AF  22265.91667824  .00004251  00000-0  34727-4 0  9999,2 53556  53.2173 345.8386 0003668  11.2748 192.1151 15.73187102  1309,6727.932,91.534,352.265,347.329,0.0
53556.0,STARLINK-4505,PAYLOAD,2022-09-23 06:00:00,15.73229114,0.0003505,53.2174,344.1886,10.8442,281.4518,-0.00040153,-0.00056689,0.0,0 STARLINK-4505,1 53556U 22101AF  22266.25001157 -.00056689  00000-0 -40153-3 0  9991,2 53556  53.2174 344.1886 0003505  10.8442 281.4518 15.73229114  5441,6727.812,91.531,352.035,347.319,0.0
53556.0,STARLINK-4505,PAYLOAD,2022-09-23 14:00:01,15.73159019,0.0003816,53.2171,342.54,9.93,11.3109,0.0004642999999999,0.0006495,0.0,0 STARLINK-4505,1 53556U 22101AF  22266.58334491  .00064950  00000-0  46430-3 0  9999,2 53556  53.2171 342.5400 0003816   9.9300  11.3109 15.73159019  1302,6728.012,91.536,352.444,347.31,0.0
53556.0,STARLINK-4505,PAYLOAD,2022-09-23 22:00:00,15.73261562,0.0003532999999999,53.2174,340.8875,6.1066,104.049,-0.00038422,-0.00054362,0.0,0 STARLINK-4505,1 53556U 22101AF  22266.91667824 -.00054362  00000-0 -38422-3 0  9995,2 53556  53.2174 340.8875 0003533   6.1066 104.0490 15.73261562  5557,6727.72,91.53,351.962,347.208,0.0
53556.0,STARLINK-4505,PAYLOAD,2022-09-24 06:00:00,15.73229807,0.0002984,53.2174,339.2353,350.0399,209.11900000000003,-0.0043626,-0.0057391,0.0,0 STARLINK-4505,1 53556U 22101AF  22267.25001157 -.00573910  00000-0 -43626-2 0  9990,2 53556  53.2174 339.2353 0002984 350.0399 209.1190 15.73229807  5605,6727.81,91.531,351.68300000000005,347.668,0.0
53556.0,STARLINK-4505,PAYLOAD,2022-09-24 14:00:01,15.72970487,0.0003628,53.2178,337.5884,305.9793,341.9408,-0.00869,-0.010845,0.0,0 STARLINK-4505,1 53556U 22101AF  22267.58335648 -.01084500  00000-0 -86900-2 0  9996,2 53556  53.2178 337.5884 0003628 305.9793 341.9408 15.72970487  1308,6728.55,91.547,352.856,347.973,0.0
53556.0,STARLINK-4505,PAYLOAD,2022-09-24 22:00:00,15.72188665,0.0005248,53.2177,335.9421,284.1992,91.8282,-0.0086589,-0.01049702,0.0,0 STARLINK-4505,1 53556U 22101AF  22267.91667824 -.01049702  00000-0 -86589-2 0  9995,2 53556  53.2177 335.9421 0005248 284.1992  91.8282 15.72188665  1305,6730.78,91.592,356.177,349.11300000000006,0.0
53556.0,STARLINK-4505,PAYLOAD,2022-09-25 14:00:01,15.70673755,0.0006816,53.2176,332.6605,271.2778,278.3342,-0.0092857,-0.01055849,0.0,0 STARLINK-4505,1 53556U 22101AF  22268.58334491 -.01055849  00000-0 -92857-2 0  9994,2 53556  53.2176 332.6605 0006816 271.2778 278.3342 15.70673755  5819,6735.107,91.68,361.56300000000016,352.38199999999995,0.0
53556.0,STARLINK-4505,PAYLOAD,2022-09-25 22:00:01,15.69901592,0.0005115,53.2176,331.0198,268.2353,6.8725,-0.0093792,-0.01033577,0.0,0 STARLINK-4505,1 53556U 22101AF  22268.91668981 -.01033577  00000-0 -93792-2 0  9998,2 53556  53.2176 331.0198 0005115 268.2353   6.8725 15.69901592  1305,6737.316,91.725,362.627,355.7340000000001,0.0
53556.0,STARLINK-4505,PAYLOAD,2022-09-26 10:00:00,15.68767595,0.0001647,53.2174,328.5656,310.2274,271.23900000000003,-0.0099452,-0.01042478,0.0,0 STARLINK-4505,1 53556U 22101AF  22269.41667824 -.01042478  00000-0 -99452-2 0  9998,2 53556  53.2174 328.5656 0001647 310.2274 271.2390 15.68767595  5941,6740.562,91.792,363.537,361.317,0.0
53556.0,STARLINK-4505,PAYLOAD,2022-09-26 14:00:01,15.68398499,0.0001486999999999,53.2177,327.7492,347.4416,95.7054,-0.010263,-0.01057672,0.0,0 STARLINK-4505,1 53556U 22101AF  22269.58334491 -.01057672  00000-0 -10263-1 0  9991,2 53556  53.2177 327.7492 0001487 347.4416  95.7054 15.68398499  1300,6741.619000000002,91.813,364.487,362.482,0.0
53556.0,STARLINK-4505,PAYLOAD,2022-09-26 22:00:00,15.67633142,0.0001199999999999,53.2177,326.1135,51.0009,114.8371,-0.010498,-0.01049106,0.0,0 STARLINK-4505,1 53556U 22101AF  22269.91667824 -.01049106  00000-0 -10498-1 0  9990,2 53556  53.2177 326.1135 0001200  51.0009 114.8371 15.67633142  1307,6743.813,91.858,366.48800000000006,364.869,0.0
53556.0,STARLINK-4505,PAYLOAD,2022-09-27 06:00:00,15.6690296,0.0001249,53.2175,324.4804,71.1818,176.4159,-0.011242,-0.01086028,0.0,0 STARLINK-4505,1 53556U 22101AF  22270.25001157 -.01086028  00000-0 -11242-1 0  9992,2 53556  53.2175 324.4804 0001249  71.1818 176.4159 15.66902960  6076,6745.908,91.901,368.616,366.931,0.0
53556.0,STARLINK-4505,PAYLOAD,2022-09-27 14:00:01,15.66114741,0.0001139,53.2176,322.8547,59.8121,268.6591,-0.011161,-0.01048348,0.0,0 STARLINK-4505,1 53556U 22101AF  22270.58334491 -.01048348  00000-0 -11161-1 0  9991,2 53556  53.2176 322.8547 0001139  59.8121 268.6591 15.66114741  1308,6748.172,91.947,370.805,369.268,0.0
53556.0,STARLINK-4505,PAYLOAD,2022-09-27 22:00:01,15.65355216,0.0001097,53.2175,321.2249,59.7476,348.73900000000015,-0.01151,-0.01048399,0.0,0 STARLINK-4505,1 53556U 22101AF  22270.91668981 -.01048399  00000-0 -11510-1 0  9996,2 53556  53.2175 321.2249 0001097  59.7476 348.7390 15.65355216  1304,6750.354,91.992,372.96,371.479,0.0
53556.0,STARLINK-4505,PAYLOAD,2022-09-28 14:00:01,15.63832461,0.000134,53.2175,317.9768,58.1278,147.453,-0.01214,-0.01041244,0.0,0 STARLINK-4505,1 53556U 22101AF  22271.58334491 -.01041244  00000-0 -12140-1 0  9998,2 53556  53.2175 317.9768 0001340  58.1278 147.4530 15.63832461  6288,6754.736,92.081,377.506,375.696,0.0
53556.0,STARLINK-4505,PAYLOAD,2022-09-28 22:00:00,15.63076919,0.0001104,53.2177,316.3525,74.2254,208.5662,-0.012598,-0.01064057,0.0,0 STARLINK-4505,1 53556U 22101AF  22271.91667824 -.01064057  00000-0 -12598-1 0  9998,2 53556  53.2177 316.3525 0001104  74.2254 208.5662 15.63076919  1306,6756.9119999999975,92.126,379.523,378.031,0.0
53556.0,STARLINK-4505,PAYLOAD,2022-09-29 06:00:00,15.62333998,0.0001190999999999,53.2174,314.7305,54.5733,304.5094,-0.0132819999999999,-0.01087227,0.0,0 STARLINK-4505,1 53556U 22101AF  22272.25001157 -.01087227  00000-0 -13282-1 0  9992,2 53556  53.2174 314.7305 0001191  54.5733 304.5094 15.62333998  6381,6759.054,92.17,381.724,380.114,0.0
53556.0,STARLINK-4505,PAYLOAD,2022-09-29 14:00:01,15.61577942,0.0001398,53.2172,313.1133,48.7382,25.7263,-0.013706,-0.01089105,0.0,0 STARLINK-4505,1 53556U 22101AF  22272.58334491 -.01089105  00000-0 -13706-1 0  9996,2 53556  53.2172 313.1133 0001398  48.7382  25.7263 15.61577942  1300,6761.236,92.214,384.046,382.155,0.0
53556.0,STARLINK-4505,PAYLOAD,2022-09-29 22:00:00,15.60813429,0.0001478,53.2175,311.495,48.5102,100.4306,-0.014021,-0.01082199,0.0,0 STARLINK-4505,1 53556U 22101AF  22272.91667824 -.01082199  00000-0 -14021-1 0  9999,2 53556  53.2175 311.4950 0001478  48.5102 100.4306 15.60813429  1309,6763.443,92.26,386.3080000000001,384.309,0.0
53556.0,STARLINK-4505,PAYLOAD,2022-09-30 06:00:02,15.60058539,0.0001323,53.2172,309.8803,63.7773,158.7869,-0.014544,-0.010895,0.0,0 STARLINK-4505,1 53556U 22101AF  22273.25002315 -.01089500  00000-0 -14544-1 0  9998,2 53556  53.2172 309.8803 0001323  63.7773 158.7869 15.60058539  6540,6765.625,92.304,388.385,386.595,0.0
53556.0,STARLINK-4505,PAYLOAD,2022-09-30 14:00:01,15.59284372,0.0001281,53.2171,308.2687,56.243,238.9094,-0.014661,-0.01068153,0.0,0 STARLINK-4505,1 53556U 22101AF  22273.58334491 -.01068153  00000-0 -14661-1 0  9998,2 53556  53.2171 308.2687 0001281  56.2430 238.9094 15.59284372  1306,6767.864000000001,92.35,390.596,388.862,0.0
53556.0,STARLINK-4505,PAYLOAD,2022-09-30 22:00:00,15.5851835,0.0001134,53.2174,306.6572,54.8247,312.0663,-0.014978,-0.01060496,0.0,0 STARLINK-4505,1 53556U 22101AF  22273.91667824 -.01060496  00000-0 -14978-1 0  9997,2 53556  53.2174 306.6572 0001134  54.8247 312.0663 15.58518350  1302,6770.081,92.395,392.714,391.179,0.0
53556.0,STARLINK-4505,PAYLOAD,2022-10-01 14:00:01,15.56999025,0.0001419,53.2174,303.4421,51.5736,96.0477,-0.015831,-0.01058559,0.0,0 STARLINK-4505,1 53556U 22101AF  22274.58334491 -.01058559  00000-0 -15831-1 0  9998,2 53556  53.2174 303.4421 0001419  51.5736  96.0477 15.56999025  1305,6774.485,92.486,397.311,395.389,0.0
53556.0,STARLINK-4505,PAYLOAD,2022-10-01 22:00:00,15.56239331,0.0001312,53.2175,301.8343,61.0282,155.5913,-0.016284,-0.01058267,0.0,0 STARLINK-4505,1 53556U 22101AF  22274.91667824 -.01058267  00000-0 -16284-1 0  9993,2 53556  53.2175 301.8343 0001312  61.0282 155.5913 15.56239331  1308,6776.689,92.531,399.444,397.665,0.0
